{"type": "FeatureCollection", "features": [ {"type": "Feature", "properties": {"norad_id": 35669, "name": "COSMOS 2251 DEB", "group": "cosmos-2251-debris", "lat": 17.1766221068684, "lon": -8.963113859450731, "alt_km": 1214.9538634070168, "timestamp": "2025-12-02T10:50:47.672258+00:00", "meta": {"OBJECT_NAME": "COSMOS 2251 DEB", "OBJECT_ID": "1993-036APL", "EPOCH": "2025-11-22T23:34:15.709728", "MEAN_MOTION": 13.57109563, "ECCENTRICITY": 0.03876416, "INCLINATION": 73.8603, "RA_OF_ASC_NODE": 191.6143, "ARG_OF_PERICENTER": 306.7499, "MEAN_ANOMALY": 49.8593, "EPHEMERIS_TYPE": 0, "CLASSIFICATION_TYPE": "U", "NORAD_CAT_ID": 35669, "ELEMENT_SET_NO": 999, "REV_AT_EPOCH": 60521, "BSTAR": 0.00098529597, "MEAN_MOTION_DOT": 1.118e-05, "MEAN_MOTION_DDOT": 0}, "tle": {"line1": "1 35669U 93036APL 25326.98212627  .00001118  00000+0  98530-3 0  9993", "line2": "2 35669  73.8603 191.6143 0387641 306.7499  49.8593 13.57109563605212"}}, "geometry": {"type": "Point", "coordinates": [-8.963113859450731, 17.1766221068684]}}, {"type": "Feature", "properties": {"norad_id": 35670, "name": "COSMOS 2251 DEB", "group": "cosmos-2251-debris", "lat": 70.14070037653669, "lon": -147.75356518884044, "alt_km": 564.0104432013895, "timestamp": "2025-12-02T10:50:47.672268+00:00", "meta": {"OBJECT_NAME": "COSMOS 2251 DEB", "OBJECT_ID": "1993-036APM", "EPOCH": "2025-11-28T16:21:38.893824", "MEAN_MOTION": 14.93319544, "ECCENTRICITY": 0.00368765, "INCLINATION": 73.8939, "RA_OF_ASC_NODE": 93.0212, "ARG_OF_PERICENTER": 58.821, "MEAN_ANOMALY": 301.6579, "EPHEMERIS_TYPE": 0, "CLASSIFICATION_TYPE": "U", "NORAD_CAT_ID": 35670, "ELEMENT_SET_NO": 999, "REV_AT_EPOCH": 87517, "BSTAR": 0.0014749382, "MEAN_MOTION_DOT": 0.00015661, "MEAN_MOTION_DDOT": 0}, "tle": {"line1": "1 35670U 93036APM 25332.68170016  .00015661  00000+0  14749-2 0  9991", "line2": "2 35670  73.8939  93.0212 0036876  58.8210 301.6579 14.93319544875175"}}, "geometry": {"type": "Point", "coordinates": [-147.75356518884044, 70.14070037653669]}}, {"type": "Feature", "properties": {"norad_id": 35671, "name": "COSMOS 2251 DEB", "group": "cosmos-2251-debris", "lat": 55.81207920089082, "lon": 123.56044625771585, "alt_km": 749.6612356114301, "timestamp": "2025-12-02T10:50:47.672279+00:00", "meta": {"OBJECT_NAME": "COSMOS 2251 DEB", "OBJECT_ID": "1993-036APN", "EPOCH": "2025-12-01T08:11:18.472992", "MEAN_MOTION": 14.48314652, "ECCENTRICITY": 0.0041561, "INCLINATION": 74.0169, "RA_OF_ASC_NODE": 100.6857, "ARG_OF_PERICENTER": 276.6997, "MEAN_ANOMALY": 113.402, "EPHEMERIS_TYPE": 0, "CLASSIFICATION_TYPE": "U", "NORAD_CAT_ID": 35671, "ELEMENT_SET_NO": 999, "REV_AT_EPOCH": 86598, "BSTAR": 0.00028068473, "MEAN_MOTION_DOT": 1.032e-05, "MEAN_MOTION_DDOT": 0}, "tle": {"line1": "1 35671U 93036APN 25335.34118603  .00001032  00000+0  28068-3 0  9999", "line2": "2 35671  74.0169 100.6857 0041561 276.6997 113.4020 14.48314652865986"}}, "geometry": {"type": "Point", "coordinates": [123.56044625771585, 55.81207920089082]}}, {"type": "Feature", "properties": {"norad_id": 35674, "name": "COSMOS 2251 DEB", "group": "cosmos-2251-debris", "lat": 72.86029923043924, "lon": 43.86396765314807, "alt_km": 671.4830119930239, "timestamp": "2025-12-02T10:50:47.672289+00:00", "meta": {"OBJECT_NAME": "COSMOS 2251 DEB", "OBJECT_ID": "1993-036APR", "EPOCH": "2025-12-01T17:57:21.748032", "MEAN_MOTION": 14.53921639, "ECCENTRICITY": 0.0095924, "INCLINATION": 74.0599, "RA_OF_ASC_NODE": 337.2611, "ARG_OF_PERICENTER": 24.6817, "MEAN_ANOMALY": 335.8889, "EPHEMERIS_TYPE": 0, "CLASSIFICATION_TYPE": "U", "NORAD_CAT_ID": 35674, "ELEMENT_SET_NO": 999, "REV_AT_EPOCH": 85951, "BSTAR": 0.0015708, "MEAN_MOTION_DOT": 7.005e-05, "MEAN_MOTION_DDOT": 0}, "tle": {"line1": "1 35674U 93036APR 25335.74816838  .00007005  00000+0  15708-2 0  9993", "line2": "2 35674  74.0599 337.2611 0095924  24.6817 335.8889 14.53921639859516"}}, "geometry": {"type": "Point", "coordinates": [43.86396765314807, 72.86029923043924]}}, {"type": "Feature", "properties": {"norad_id": 35703, "name": "COSMOS 2251 DEB", "group": "cosmos-2251-debris", "lat": 32.75363882633468, "lon": -127.25445074928805, "alt_km": 550.0177382535903, "timestamp": "2025-12-02T10:50:47.672299+00:00", "meta": {"OBJECT_NAME": "COSMOS 2251 DEB", "OBJECT_ID": "1993-036APY", "EPOCH": "2025-11-29T12:54:34.216128", "MEAN_MOTION": 14.90033275, "ECCENTRICITY": 0.00657991, "INCLINATION": 74.0417, "RA_OF_ASC_NODE": 69.1804, "ARG_OF_PERICENTER": 143.4261, "MEAN_ANOMALY": 217.1441, "EPHEMERIS_TYPE": 0, "CLASSIFICATION_TYPE": "U", "NORAD_CAT_ID": 35703, "ELEMENT_SET_NO": 999, "REV_AT_EPOCH": 66419, "BSTAR": 0.00097213112, "MEAN_MOTION_DOT": 9.751e-05, "MEAN_MOTION_DDOT": 0}, "tle": {"line1": "1 35703U 93036APY 25333.53789602  .00009751  00000+0  97213-3 0  9991", "line2": "2 35703  74.0417  69.1804 0065799 143.4261 217.1441 14.90033275664198"}}, "geometry": {"type": "Point", "coordinates": [-127.25445074928805, 32.75363882633468]}}, {"type": "Feature", "properties": {"norad_id": 35705, "name": "COSMOS 2251 DEB", "group": "cosmos-2251-debris", "lat": -60.916387398681046, "lon": 5.964725998329647, "alt_km": 678.9736925715015, "timestamp": "2025-12-02T10:50:47.672309+00:00", "meta": {"OBJECT_NAME": "COSMOS 2251 DEB", "OBJECT_ID": "1993-036AQA", "EPOCH": "2025-11-30T18:34:55.460928", "MEAN_MOTION": 14.71601566, "ECCENTRICITY": 0.00343203, "INCLINATION": 74.2748, "RA_OF_ASC_NODE": 158.7429, "ARG_OF_PERICENTER": 116.054, "MEAN_ANOMALY": 244.4173, "EPHEMERIS_TYPE": 0, "CLASSIFICATION_TYPE": "U", "NORAD_CAT_ID": 35705, "ELEMENT_SET_NO": 999, "REV_AT_EPOCH": 85750, "BSTAR": 0.0026714631, "MEAN_MOTION_DOT": 0.00016783, "MEAN_MOTION_DDOT": 0}, "tle": {"line1": "1 35705U 93036AQA 25334.77425302  .00016783  00000+0  26715-2 0  9995", "line2": "2 35705  74.2748 158.7429 0034320 116.0540 244.4173 14.71601566857506"}}, "geometry": {"type": "Point", "coordinates": [5.964725998329647, -60.916387398681046]}}, {"type": "Feature", "properties": {"norad_id": 35706, "name": "COSMOS 2251 DEB", "group": "cosmos-2251-debris", "lat": 66.77051522942784, "lon": -142.52793099660332, "alt_km": 776.2497076816117, "timestamp": "2025-12-02T10:50:47.672319+00:00", "meta": {"OBJECT_NAME": "COSMOS 2251 DEB", "OBJECT_ID": "1993-036AQB", "EPOCH": "2025-12-01T13:14:17.826144", "MEAN_MOTION": 13.65877076, "ECCENTRICITY": 0.03419141, "INCLINATION": 73.888, "RA_OF_ASC_NODE": 81.2903, "ARG_OF_PERICENTER": 133.1878, "MEAN_ANOMALY": 229.8353, "EPHEMERIS_TYPE": 0, "CLASSIFICATION_TYPE": "U", "NORAD_CAT_ID": 35706, "ELEMENT_SET_NO": 999, "REV_AT_EPOCH": 61909, "BSTAR": 0.0013112957, "MEAN_MOTION_DOT": 1.587e-05, "MEAN_MOTION_DDOT": 0}, "tle": {"line1": "1 35706U 93036AQB 25335.55159521  .00001587  00000+0  13113-2 0  9994", "line2": "2 35706  73.8880  81.2903 0341914 133.1878 229.8353 13.65877076619090"}}, "geometry": {"type": "Point", "coordinates": [-142.52793099660332, 66.77051522942784]}}, {"type": "Feature", "properties": {"norad_id": 35711, "name": "COSMOS 2251 DEB", "group": "cosmos-2251-debris", "lat": 18.06799637927527, "lon": 54.843735778665206, "alt_km": 741.1140175090595, "timestamp": "2025-12-02T10:50:47.672329+00:00", "meta": {"OBJECT_NAME": "COSMOS 2251 DEB", "OBJECT_ID": "1993-036AQG", "EPOCH": "2025-12-02T00:16:13.414368", "MEAN_MOTION": 14.63746545, "ECCENTRICITY": 0.0085061, "INCLINATION": 74.0469, "RA_OF_ASC_NODE": 241.0434, "ARG_OF_PERICENTER": 344.6598, "MEAN_ANOMALY": 15.1992, "EPHEMERIS_TYPE": 0, "CLASSIFICATION_TYPE": "U", "NORAD_CAT_ID": 35711, "ELEMENT_SET_NO": 999, "REV_AT_EPOCH": 87614, "BSTAR": 0.00037639, "MEAN_MOTION_DOT": 2.034e-05, "MEAN_MOTION_DDOT": 0}, "tle": {"line1": "1 35711U 93036AQG 25336.01126637  .00002034  00000+0  37639-3 0  9992", "line2": "2 35711  74.0469 241.0434 0085061 344.6598  15.1992 14.63746545876144"}}, "geometry": {"type": "Point", "coordinates": [54.843735778665206, 18.06799637927527]}}, {"type": "Feature", "properties": {"norad_id": 35716, "name": "COSMOS 2251 DEB", "group": "cosmos-2251-debris", "lat": 15.971636583566752, "lon": -141.39776985687988, "alt_km": 645.78858537006, "timestamp": "2025-12-02T10:50:47.672339+00:00", "meta": {"OBJECT_NAME": "COSMOS 2251 DEB", "OBJECT_ID": "1993-036AQM", "EPOCH": "2025-12-01T00:31:48.079200", "MEAN_MOTION": 14.60063594, "ECCENTRICITY": 0.00883976, "INCLINATION": 73.9936, "RA_OF_ASC_NODE": 216.6246, "ARG_OF_PERICENTER": 60.6815, "MEAN_ANOMALY": 4.1449, "EPHEMERIS_TYPE": 0, "CLASSIFICATION_TYPE": "U", "NORAD_CAT_ID": 35716, "ELEMENT_SET_NO": 999, "REV_AT_EPOCH": 87456, "BSTAR": 0.00013723681, "MEAN_MOTION_DOT": 6.64e-06, "MEAN_MOTION_DDOT": 0}, "tle": {"line1": "1 35716U 93036AQM 25335.02208425  .00000664  00000+0  13724-3 0  9999", "line2": "2 35716  73.9936 216.6246 0088397  60.6815   4.1449 14.60063594874569"}}, "geometry": {"type": "Point", "coordinates": [-141.39776985687988, 15.971636583566752]}}, {"type": "Feature", "properties": {"norad_id": 35717, "name": "COSMOS 2251 DEB", "group": "cosmos-2251-debris", "lat": -45.53278796213109, "lon": 73.1343712571326, "alt_km": 803.6201415538508, "timestamp": "2025-12-02T10:50:47.672349+00:00", "meta": {"OBJECT_NAME": "COSMOS 2251 DEB", "OBJECT_ID": "1993-036AQN", "EPOCH": "2025-11-20T02:19:42.985056", "MEAN_MOTION": 14.38259242, "ECCENTRICITY": 0.00762455, "INCLINATION": 74.1612, "RA_OF_ASC_NODE": 258.9085, "ARG_OF_PERICENTER": 125.8129, "MEAN_ANOMALY": 235.0143, "EPHEMERIS_TYPE": 0, "CLASSIFICATION_TYPE": "U", "NORAD_CAT_ID": 35717, "ELEMENT_SET_NO": 999, "REV_AT_EPOCH": 73774, "BSTAR": 0.0010708512, "MEAN_MOTION_DOT": 3.344e-05, "MEAN_MOTION_DDOT": 0}, "tle": {"line1": "1 35717U 93036AQN 25324.09702529  .00003344  00000+0  10709-2 0  9996", "line2": "2 35717  74.1612 258.9085 0076245 125.8129 235.0143 14.38259242737741"}}, "geometry": {"type": "Point", "coordinates": [73.1343712571326, -45.53278796213109]}}]}